{
  "norad_id": 66950,
  "name": "STARLINK-36111",
  "history": [
    {
      "epoch": "2026-03-28T21:26:00.427200",
      "apogee_km": 475.89511630344896,
      "perigee_km": 474.5189648201049,
      "latitude_deg": 50.01297256604804,
      "longitude_deg": -119.26619199989364,
      "semi_major_axis_km": 6853.344040561777,
      "eccentricity": 0.0001004,
      "inclination_deg": 53.1577,
      "raan_deg": 269.4776,
      "arg_perigee_deg": 84.4019,
      "mean_anomaly_deg": 275.7096,
      "mean_motion_rev_day": 15.30202689
    }
  ]
}